[{"OBJECT_NAME":"YAOGAN-15","OBJECT_ID":"2012-029A","EPOCH":"2024-06-13T04:27:10.071072","MEAN_MOTION":13.18325376,"ECCENTRICITY":0.0025646,"INCLINATION":100.7546,"RA_OF_ASC_NODE":344.2579,"ARG_OF_PERICENTER":149.7796,"MEAN_ANOMALY":210.4802,"EPHEMERIS_TYPE":0,"CLASSIFICATION_TYPE":"U","NORAD_CAT_ID":38354,"ELEMENT_SET_NO":999,"REV_AT_EPOCH":57872,"BSTAR":4.5287e-5,"MEAN_MOTION_DOT":-2.9e-7,"MEAN_MOTION_DDOT":0},{"OBJECT_NAME":"INTELSAT 19 (IS-19)","OBJECT_ID":"2012-030A","EPOCH":"2024-06-12T20:27:42.663168","MEAN_MOTION":1.00271995,"ECCENTRICITY":0.0002829,"INCLINATION":0.0159,"RA_OF_ASC_NODE":350.7346,"ARG_OF_PERICENTER":94.4764,"MEAN_ANOMALY":289.3772,"EPHEMERIS_TYPE":0,"CLASSIFICATION_TYPE":"U","NORAD_CAT_ID":38356,"ELEMENT_SET_NO":999,"REV_AT_EPOCH":4307,"BSTAR":0,"MEAN_MOTION_DOT":-5.0e-7,"MEAN_MOTION_DDOT":0},{"OBJECT_NAME":"NUSTAR","OBJECT_ID":"2012-031A","EPOCH":"2024-06-13T06:00:02.000160","MEAN_MOTION":14.96306611,"ECCENTRICITY":0.0008666,"INCLINATION":6.027,"RA_OF_ASC_NODE":92.2842,"ARG_OF_PERICENTER":78.3972,"MEAN_ANOMALY":314.9934,"EPHEMERIS_TYPE":0,"CLASSIFICATION_TYPE":"U","NORAD_CAT_ID":38358,"ELEMENT_SET_NO":999,"REV_AT_EPOCH":65369,"BSTAR":0.0014735,"MEAN_MOTION_DOT":0.00017936,"MEAN_MOTION_DDOT":0},{"OBJECT_NAME":"ECHOSTAR 17","OBJECT_ID":"2012-035A","EPOCH":"2024-06-13T04:15:42.751296","MEAN_MOTION":1.0027204,"ECCENTRICITY":0.0002201,"INCLINATION":0.0183,"RA_OF_ASC_NODE":1.777,"ARG_OF_PERICENTER":79.3393,"MEAN_ANOMALY":137.6885,"EPHEMERIS_TYPE":0,"CLASSIFICATION_TYPE":"U","NORAD_CAT_ID":38551,"ELEMENT_SET_NO":999,"REV_AT_EPOCH":4376,"BSTAR":0,"MEAN_MOTION_DOT":-6.8e-7,"MEAN_MOTION_DDOT":0},{"OBJECT_NAME":"METEOSAT-10 (MSG-3)","OBJECT_ID":"2012-035B","EPOCH":"2024-06-12T20:40:20.607168","MEAN_MOTION":1.00266563,"ECCENTRICITY":8.58e-5,"INCLINATION":2.9565,"RA_OF_ASC_NODE":60.9653,"ARG_OF_PERICENTER":308.9961,"MEAN_ANOMALY":202.0885,"EPHEMERIS_TYPE":0,"CLASSIFICATION_TYPE":"U","NORAD_CAT_ID":38552,"ELEMENT_SET_NO":999,"REV_AT_EPOCH":4349,"BSTAR":0,"MEAN_MOTION_DOT":0,"MEAN_MOTION_DDOT":0},{"OBJECT_NAME":"SES-5","OBJECT_ID":"2012-036A","EPOCH":"2024-06-13T01:09:42.541056","MEAN_MOTION":1.00269901,"ECCENTRICITY":0.0001841,"INCLINATION":0.041,"RA_OF_ASC_NODE":313.4833,"ARG_OF_PERICENTER":133.0112,"MEAN_ANOMALY":197.7555,"EPHEMERIS_TYPE":0,"CLASSIFICATION_TYPE":"U","NORAD_CAT_ID":38652,"ELEMENT_SET_NO":999,"REV_AT_EPOCH":4370,"BSTAR":0,"MEAN_MOTION_DOT":4.0e-7,"MEAN_MOTION_DDOT":0},{"OBJECT_NAME":"KANOPUS-V 1","OBJECT_ID":"2012-039A","EPOCH":"2024-06-12T18:53:14.614080","MEAN_MOTION":15.4881942,"ECCENTRICITY":0.0004307,"INCLINATION":97.4968,"RA_OF_ASC_NODE":103.1111,"ARG_OF_PERICENTER":85.5938,"MEAN_ANOMALY":274.5804,"EPHEMERIS_TYPE":0,"CLASSIFICATION_TYPE":"U","NORAD_CAT_ID":38707,"ELEMENT_SET_NO":999,"REV_AT_EPOCH":66053,"BSTAR":0.0005532,"MEAN_MOTION_DOT":0.0002973,"MEAN_MOTION_DDOT":0},{"OBJECT_NAME":"BKA 2","OBJECT_ID":"2012-039B","EPOCH":"2024-06-13T05:28:40.856160","MEAN_MOTION":15.55525757,"ECCENTRICITY":0.0003261,"INCLINATION":97.2568,"RA_OF_ASC_NODE":65.4851,"ARG_OF_PERICENTER":92.1808,"MEAN_ANOMALY":267.982,"EPHEMERIS_TYPE":0,"CLASSIFICATION_TYPE":"U","NORAD_CAT_ID":38708,"ELEMENT_SET_NO":999,"REV_AT_EPOCH":66074,"BSTAR":0.00082445,"MEAN_MOTION_DOT":0.00056566,"MEAN_MOTION_DDOT":0},{"OBJECT_NAME":"EXACTVIEW-1 (ADS-1B)","OBJECT_ID":"2012-039C","EPOCH":"2024-06-13T04:07:08.749056","MEAN_MOTION":14.24465365,"ECCENTRICITY":0.0011869,"INCLINATION":98.951,"RA_OF_ASC_NODE":256.9548,"ARG_OF_PERICENTER":124.5008,"MEAN_ANOMALY":235.7293,"EPHEMERIS_TYPE":0,"CLASSIFICATION_TYPE":"U","NORAD_CAT_ID":38709,"ELEMENT_SET_NO":999,"REV_AT_EPOCH":61818,"BSTAR":0.00013239,"MEAN_MOTION_DOT":2.61e-6,"MEAN_MOTION_DDOT":0},{"OBJECT_NAME":"MKA-PN 1","OBJECT_ID":"2012-039E","EPOCH":"2024-06-12T20:06:10.970208","MEAN_MOTION":14.24822855,"ECCENTRICITY":0.0012499,"INCLINATION":98.9468,"RA_OF_ASC_NODE":256.1672,"ARG_OF_PERICENTER":124.2812,"MEAN_ANOMALY":235.9551,"EPHEMERIS_TYPE":0,"CLASSIFICATION_TYPE":"U","NORAD_CAT_ID":38711,"ELEMENT_SET_NO":999,"REV_AT_EPOCH":61824,"BSTAR":0.00015291,"MEAN_MOTION_DOT":3.11e-6,"MEAN_MOTION_DDOT":0},{"OBJECT_NAME":"COSMOS 2481","OBJECT_ID":"2012-041A","EPOCH":"2024-06-12T21:22:20.359488","MEAN_MOTION":12.42411339,"ECCENTRICITY":0.0017641,"INCLINATION":82.4732,"RA_OF_ASC_NODE":173.0157,"ARG_OF_PERICENTER":233.2147,"MEAN_ANOMALY":126.7313,"EPHEMERIS_TYPE":0,"CLASSIFICATION_TYPE":"U","NORAD_CAT_ID":38733,"ELEMENT_SET_NO":999,"REV_AT_EPOCH":53856,"BSTAR":0.00012985,"MEAN_MOTION_DOT":2.8e-7,"MEAN_MOTION_DDOT":0},{"OBJECT_NAME":"GONETS-M 3","OBJECT_ID":"2012-041B","EPOCH":"2024-06-12T21:48:36.717984","MEAN_MOTION":12.44863423,"ECCENTRICITY":0.0015364,"INCLINATION":82.4731,"RA_OF_ASC_NODE":164.702,"ARG_OF_PERICENTER":225.6739,"MEAN_ANOMALY":134.3083,"EPHEMERIS_TYPE":0,"CLASSIFICATION_TYPE":"U","NORAD_CAT_ID":38734,"ELEMENT_SET_NO":999,"REV_AT_EPOCH":53930,"BSTAR":0.00020584,"MEAN_MOTION_DOT":3.9e-7,"MEAN_MOTION_DDOT":0},{"OBJECT_NAME":"GONETS-M 4","OBJECT_ID":"2012-041D","EPOCH":"2024-06-12T20:10:12.686304","MEAN_MOTION":12.43865673,"ECCENTRICITY":0.0024063,"INCLINATION":82.4777,"RA_OF_ASC_NODE":169.6168,"ARG_OF_PERICENTER":214.6972,"MEAN_ANOMALY":145.254,"EPHEMERIS_TYPE":0,"CLASSIFICATION_TYPE":"U","NORAD_CAT_ID":38736,"ELEMENT_SET_NO":999,"REV_AT_EPOCH":53165,"BSTAR":0.00012623,"MEAN_MOTION_DOT":2.8e-7,"MEAN_MOTION_DDOT":0},{"OBJECT_NAME":"INTELSAT 20 (IS-20)","OBJECT_ID":"2012-043A","EPOCH":"2024-06-12T20:56:42.732384","MEAN_MOTION":1.00270679,"ECCENTRICITY":0.0001551,"INCLINATION":0.0044,"RA_OF_ASC_NODE":29.9735,"ARG_OF_PERICENTER":149.7417,"MEAN_ANOMALY":104.6352,"EPHEMERIS_TYPE":0,"CLASSIFICATION_TYPE":"U","NORAD_CAT_ID":38740,"ELEMENT_SET_NO":999,"REV_AT_EPOCH":4338,"BSTAR":0,"MEAN_MOTION_DOT":-1.8e-7,"MEAN_MOTION_DDOT":0},{"OBJECT_NAME":"HYLAS 2","OBJECT_ID":"2012-043B","EPOCH":"2024-06-13T00:54:42.852672","MEAN_MOTION":1.00273429,"ECCENTRICITY":9.04e-5,"INCLINATION":0.5269,"RA_OF_ASC_NODE":90.2169,"ARG_OF_PERICENTER":338.1416,"MEAN_ANOMALY":349.6591,"EPHEMERIS_TYPE":0,"CLASSIFICATION_TYPE":"U","NORAD_CAT_ID":38741,"ELEMENT_SET_NO":999,"REV_AT_EPOCH":4349,"BSTAR":0,"MEAN_MOTION_DOT":-2.55e-6,"MEAN_MOTION_DDOT":0},{"OBJECT_NAME":"EXPRESS-MD2","OBJECT_ID":"2012-044B","EPOCH":"2024-06-13T04:12:50.332320","MEAN_MOTION":11.74218213,"ECCENTRICITY":0.1879273,"INCLINATION":49.8521,"RA_OF_ASC_NODE":158.9534,"ARG_OF_PERICENTER":86.9818,"MEAN_ANOMALY":294.3193,"EPHEMERIS_TYPE":0,"CLASSIFICATION_TYPE":"U","NORAD_CAT_ID":38745,"ELEMENT_SET_NO":999,"REV_AT_EPOCH":47191,"BSTAR":0.00074371,"MEAN_MOTION_DOT":0.00033989,"MEAN_MOTION_DDOT":4.997e-6},{"OBJECT_NAME":"INTELSAT 21 (IS-21)","OBJECT_ID":"2012-045A","EPOCH":"2024-06-12T18:40:36.259680","MEAN_MOTION":1.00270738,"ECCENTRICITY":0.0001663,"INCLINATION":0.0185,"RA_OF_ASC_NODE":325.1996,"ARG_OF_PERICENTER":128.5161,"MEAN_ANOMALY":30.011,"EPHEMERIS_TYPE":0,"CLASSIFICATION_TYPE":"U","NORAD_CAT_ID":38749,"ELEMENT_SET_NO":999,"REV_AT_EPOCH":4316,"BSTAR":0,"MEAN_MOTION_DOT":-2.79e-6,"MEAN_MOTION_DDOT":0},{"OBJECT_NAME":"SPOT 6","OBJECT_ID":"2012-047A","EPOCH":"2024-06-13T03:51:18.545184","MEAN_MOTION":14.58528033,"ECCENTRICITY":0.0001023,"INCLINATION":98.2224,"RA_OF_ASC_NODE":231.8471,"ARG_OF_PERICENTER":91.2378,"MEAN_ANOMALY":268.8938,"EPHEMERIS_TYPE":0,"CLASSIFICATION_TYPE":"U","NORAD_CAT_ID":38755,"ELEMENT_SET_NO":999,"REV_AT_EPOCH":62608,"BSTAR":0.0001591,"MEAN_MOTION_DOT":6.93e-6,"MEAN_MOTION_DDOT":0},{"OBJECT_NAME":"SMDC ONE 1.2","OBJECT_ID":"2012-048B","EPOCH":"2024-06-13T00:53:32.555904","MEAN_MOTION":15.01020209,"ECCENTRICITY":0.0126171,"INCLINATION":64.6629,"RA_OF_ASC_NODE":24.3512,"ARG_OF_PERICENTER":28.584,"MEAN_ANOMALY":332.2116,"EPHEMERIS_TYPE":0,"CLASSIFICATION_TYPE":"U","NORAD_CAT_ID":38759,"ELEMENT_SET_NO":999,"REV_AT_EPOCH":518,"BSTAR":0.00057107,"MEAN_MOTION_DOT":8.497e-5,"MEAN_MOTION_DDOT":0},{"OBJECT_NAME":"CINEMA","OBJECT_ID":"2012-048G","EPOCH":"2024-06-12T21:02:53.348640","MEAN_MOTION":15.0729014,"ECCENTRICITY":0.0114134,"INCLINATION":64.6638,"RA_OF_ASC_NODE":345.867,"ARG_OF_PERICENTER":19.9123,"MEAN_ANOMALY":340.6396,"EPHEMERIS_TYPE":0,"CLASSIFICATION_TYPE":"U","NORAD_CAT_ID":38764,"ELEMENT_SET_NO":999,"REV_AT_EPOCH":518,"BSTAR":0.00062483,"MEAN_MOTION_DOT":0.00010813,"MEAN_MOTION_DDOT":0},{"OBJECT_NAME":"SMDC ONE 1.1","OBJECT_ID":"2012-048J","EPOCH":"2024-06-12T19:43:50.125152","MEAN_MOTION":15.17167017,"ECCENTRICITY":0.0095337,"INCLINATION":64.6569,"RA_OF_ASC_NODE":284.752,"ARG_OF_PERICENTER":15.6138,"MEAN_ANOMALY":344.7889,"EPHEMERIS_TYPE":0,"CLASSIFICATION_TYPE":"U","NORAD_CAT_ID":38766,"ELEMENT_SET_NO":999,"REV_AT_EPOCH":731,"BSTAR":0.00072311,"MEAN_MOTION_DOT":0.00016047,"MEAN_MOTION_DDOT":0},{"OBJECT_NAME":"AEROCUBE 4.5A","OBJECT_ID":"2012-048K","EPOCH":"2024-06-12T22:27:32.856480","MEAN_MOTION":15.10076539,"ECCENTRICITY":0.0106902,"INCLINATION":64.6616,"RA_OF_ASC_NODE":327.8592,"ARG_OF_PERICENTER":19.6461,"MEAN_ANOMALY":340.8729,"EPHEMERIS_TYPE":0,"CLASSIFICATION_TYPE":"U","NORAD_CAT_ID":38767,"ELEMENT_SET_NO":999,"REV_AT_EPOCH":25982,"BSTAR":0.00064007,"MEAN_MOTION_DOT":0.00011802,"MEAN_MOTION_DDOT":0},{"OBJECT_NAME":"AEROCUBE 4.5B","OBJECT_ID":"2012-048L","EPOCH":"2024-06-12T15:33:07.836768","MEAN_MOTION":15.24903184,"ECCENTRICITY":0.0088234,"INCLINATION":64.6551,"RA_OF_ASC_NODE":254.4704,"ARG_OF_PERICENTER":7.0499,"MEAN_ANOMALY":353.1846,"EPHEMERIS_TYPE":0,"CLASSIFICATION_TYPE":"U","NORAD_CAT_ID":38768,"ELEMENT_SET_NO":999,"REV_AT_EPOCH":26073,"BSTAR":0.00084247,"MEAN_MOTION_DOT":0.00023399,"MEAN_MOTION_DDOT":0},{"OBJECT_NAME":"METOP-B","OBJECT_ID":"2012-049A","EPOCH":"2024-06-13T03:52:03.039456","MEAN_MOTION":14.21551842,"ECCENTRICITY":0.0001693,"INCLINATION":98.6272,"RA_OF_ASC_NODE":222.4751,"ARG_OF_PERICENTER":78.4986,"MEAN_ANOMALY":281.6382,"EPHEMERIS_TYPE":0,"CLASSIFICATION_TYPE":"U","NORAD_CAT_ID":38771,"ELEMENT_SET_NO":999,"REV_AT_EPOCH":60897,"BSTAR":0.00012307,"MEAN_MOTION_DOT":2.26e-6,"MEAN_MOTION_DDOT":0}]
